[
    {
        "Altitude(m)": 554979.4842561339,
        "Argument of Periapsis(deg)": 0.033114955553567506,
        "Eccentricity": 0.0,
        "Inclination(deg)": 53.0,
        "Latitude(deg)": -4.794043560510292,
        "Longitude(deg)": 52.4086409385957,
        "Mean Anomaly(deg)": -5.905535662112065,
        "RAAN(deg)": 159.95071684264008,
        "Satellite Name": "Starlink Shell 1 722",
        "Satellite Number": 722,
        "Semi-Major Axis(m)": 6931778.249405717,
        "Time(s)": 950
    },
    {
        "Altitude(m)": 554889.3613501121,
        "Argument of Periapsis(deg)": 0.03346353403307874,
        "Eccentricity": 0.0,
        "Inclination(deg)": 53.0,
        "Latitude(deg)": -4.291122639217295,
        "Longitude(deg)": 52.74630046422863,
        "Mean Anomaly(deg)": -5.278704458555294,
        "RAAN(deg)": 159.9501980725626,
        "Satellite Name": "Starlink Shell 1 722",
        "Satellite Number": 722,
        "Semi-Major Axis(m)": 6931778.249405717,
        "Time(s)": 960
    },
    {
        "Altitude(m)": 554801.9192826587,
        "Argument of Periapsis(deg)": 0.03381211251258998,
        "Eccentricity": 0.0,
        "Inclination(deg)": 53.0,
        "Latitude(deg)": -3.7879960285315004,
        "Longitude(deg)": 53.083473163278285,
        "Mean Anomaly(deg)": -4.651873254998622,
        "RAAN(deg)": 159.94967930248515,
        "Satellite Name": "Starlink Shell 1 722",
        "Satellite Number": 722,
        "Semi-Major Axis(m)": 6931778.249405717,
        "Time(s)": 970
    },
    {
        "Altitude(m)": 554717.1768178395,
        "Argument of Periapsis(deg)": 0.034160690992101214,
        "Eccentricity": 0.0,
        "Inclination(deg)": 53.0,
        "Latitude(deg)": -3.2846869682019966,
        "Longitude(deg)": 53.42021732616367,
        "Mean Anomaly(deg)": -4.025042051441979,
        "RAAN(deg)": 159.94916053240766,
        "Satellite Name": "Starlink Shell 1 722",
        "Satellite Number": 722,
        "Semi-Major Axis(m)": 6931778.249405717,
        "Time(s)": 980
    },
    {
        "Altitude(m)": 554635.1513928598,
        "Argument of Periapsis(deg)": 0.034509269471612446,
        "Eccentricity": 0.0,
        "Inclination(deg)": 53.0,
        "Latitude(deg)": -2.7812186132207803,
        "Longitude(deg)": 53.75659156319191,
        "Mean Anomaly(deg)": -3.3982108478852315,
        "RAAN(deg)": 159.9486417623302,
        "Satellite Name": "Starlink Shell 1 722",
        "Satellite Number": 722,
        "Semi-Major Axis(m)": 6931778.249405717,
        "Time(s)": 990
    }
]